ATLAS CENTAUR R/B       
1 06155U 72065B   26014.36685776  .00000775  00000+0  10912-3 0  9992
2 06155  35.0013 264.0644 0034622 273.1402  86.5337 14.77507497833224
SL-8 R/B                
1 08459U 75112B   26014.45490950  .00000157  00000+0  60197-4 0  9990
2 08459  74.0615 118.6836 0016421 226.6560 133.3226 14.38169652624079
SL-3 R/B                
1 10114U 77057B   26014.56238849  .00007349  00000+0  16396-3 0  9991
2 10114  97.5698 184.1939 0008469 114.7319 245.4811 15.43845380659973
SEASAT 1                
1 10967U 78064A   26014.54086331  .00000198  00000+0  93927-4 0  9992
2 10967 108.0157  11.8592 0001160 276.3379  83.7634 14.46102585498680
SL-14 R/B               
1 11267U 79011B   26014.45358117  .00000509  00000+0  47856-4 0  9999
2 11267  82.5256 148.0189 0014855 235.7804 124.2009 14.91821723520698
SL-8 R/B                
1 11574U 79089B   26014.50579525  .00000264  00000+0  87832-4 0  9995
2 11574  74.0674 191.3343 0015473  13.2380 346.9180 14.42306889428290
SL-14 R/B               
1 11672U 80005B   26014.43102002  .00000499  00000+0  48085-4 0  9995
2 11672  82.5148 358.6898 0015461 350.5820   9.5106 14.90839984468402
SL-8 R/B                
1 12139U 81003B   26014.39137038  .00018076  00000+0  47793-3 0  9999
2 12139  82.9383 340.1493 0271926   8.2129 352.3413 15.08460421306487
SL-3 R/B                
1 12465U 81046B   26014.57224214  .00006573  00000+0  16088-3 0  9993
2 12465  81.2326 354.6342 0018578 202.4229 157.6203 15.40408340430098
SL-3 R/B                
1 12904U 81103B   26014.56524712  .00002411  00000+0  10836-3 0  9992
2 12904  81.1594 276.9010 0014309 104.7906 255.4912 15.20673915965002
SL-3 R/B                
1 13068U 82013B   26014.53144798  .00002742  00000+0  12025-3 0  9993
2 13068  81.1726 224.2173 0022958   4.8507 355.2942 15.21400630396118
SL-3 R/B                
1 13154U 82039B   26014.58133945  .00001434  00000+0  86522-4 0  9995
2 13154  81.1680 278.3052 0029868 141.6013 218.7346 15.09745280373472
