CCSDS_OMM_VERS = 2.0
CREATION_DATE  = 
ORIGINATOR     = 

OBJECT_NAME    = ATLAS CENTAUR R/B
OBJECT_ID      = 1972-065B
CENTER_NAME    = EARTH
REF_FRAME      = TEME
TIME_SYSTEM    = UTC
MEAN_ELEMENT_THEORY = SGP/SGP4

EPOCH          = 2026-01-14T08:48:16.510464
MEAN_MOTION    = 14.77507497
ECCENTRICITY   = .00346227
INCLINATION    = 35.0013
RA_OF_ASC_NODE = 264.0644
ARG_OF_PERICENTER = 273.1402
MEAN_ANOMALY   = 86.5337

EPHEMERIS_TYPE = 0
CLASSIFICATION_TYPE = U
NORAD_CAT_ID   = 6155
ELEMENT_SET_NO = 999
REV_AT_EPOCH   = 83322
BSTAR          = .1091169E-3
MEAN_MOTION_DOT = .775E-5
MEAN_MOTION_DDOT = 0

CCSDS_OMM_VERS = 2.0
CREATION_DATE  = 
ORIGINATOR     = 

OBJECT_NAME    = SL-8 R/B
OBJECT_ID      = 1975-112B
CENTER_NAME    = EARTH
REF_FRAME      = TEME
TIME_SYSTEM    = UTC
MEAN_ELEMENT_THEORY = SGP/SGP4

EPOCH          = 2026-01-14T10:55:04.180800
MEAN_MOTION    = 14.38169652
ECCENTRICITY   = .00164216
INCLINATION    = 74.0615
RA_OF_ASC_NODE = 118.6836
ARG_OF_PERICENTER = 226.6560
MEAN_ANOMALY   = 133.3226

EPHEMERIS_TYPE = 0
CLASSIFICATION_TYPE = U
NORAD_CAT_ID   = 8459
ELEMENT_SET_NO = 999
REV_AT_EPOCH   = 62407
BSTAR          = .6019726E-4
MEAN_MOTION_DOT = .157E-5
MEAN_MOTION_DDOT = 0

CCSDS_OMM_VERS = 2.0
CREATION_DATE  = 
ORIGINATOR     = 

OBJECT_NAME    = SL-3 R/B
OBJECT_ID      = 1977-057B
CENTER_NAME    = EARTH
REF_FRAME      = TEME
TIME_SYSTEM    = UTC
MEAN_ELEMENT_THEORY = SGP/SGP4

EPOCH          = 2026-01-14T13:29:50.365536
MEAN_MOTION    = 15.43845380
ECCENTRICITY   = .00084693
INCLINATION    = 97.5698
RA_OF_ASC_NODE = 184.1939
ARG_OF_PERICENTER = 114.7319
MEAN_ANOMALY   = 245.4811

EPHEMERIS_TYPE = 0
CLASSIFICATION_TYPE = U
NORAD_CAT_ID   = 10114
ELEMENT_SET_NO = 999
REV_AT_EPOCH   = 65997
BSTAR          = .16395671E-3
MEAN_MOTION_DOT = .7349E-4
MEAN_MOTION_DDOT = 0

CCSDS_OMM_VERS = 2.0
CREATION_DATE  = 
ORIGINATOR     = 

OBJECT_NAME    = SEASAT 1
OBJECT_ID      = 1978-064A
CENTER_NAME    = EARTH
REF_FRAME      = TEME
TIME_SYSTEM    = UTC
MEAN_ELEMENT_THEORY = SGP/SGP4

EPOCH          = 2026-01-14T12:58:50.589984
MEAN_MOTION    = 14.46102585
ECCENTRICITY   = .00011606
INCLINATION    = 108.0157
RA_OF_ASC_NODE = 11.8592
ARG_OF_PERICENTER = 276.3379
MEAN_ANOMALY   = 83.7634

EPHEMERIS_TYPE = 0
CLASSIFICATION_TYPE = U
NORAD_CAT_ID   = 10967
ELEMENT_SET_NO = 999
REV_AT_EPOCH   = 49868
BSTAR          = .93927036E-4
MEAN_MOTION_DOT = .198E-5
MEAN_MOTION_DDOT = 0

CCSDS_OMM_VERS = 2.0
CREATION_DATE  = 
ORIGINATOR     = 

OBJECT_NAME    = SL-14 R/B
OBJECT_ID      = 1979-011B
CENTER_NAME    = EARTH
REF_FRAME      = TEME
TIME_SYSTEM    = UTC
MEAN_ELEMENT_THEORY = SGP/SGP4

EPOCH          = 2026-01-14T10:53:09.413088
MEAN_MOTION    = 14.91821723
ECCENTRICITY   = .0014855
INCLINATION    = 82.5256
RA_OF_ASC_NODE = 148.0189
ARG_OF_PERICENTER = 235.7804
MEAN_ANOMALY   = 124.2009

EPHEMERIS_TYPE = 0
CLASSIFICATION_TYPE = U
NORAD_CAT_ID   = 11267
ELEMENT_SET_NO = 999
REV_AT_EPOCH   = 52069
BSTAR          = .47855894E-4
MEAN_MOTION_DOT = .509E-5
MEAN_MOTION_DDOT = 0

CCSDS_OMM_VERS = 2.0
CREATION_DATE  = 
ORIGINATOR     = 

OBJECT_NAME    = SL-8 R/B
OBJECT_ID      = 1979-089B
CENTER_NAME    = EARTH
REF_FRAME      = TEME
TIME_SYSTEM    = UTC
MEAN_ELEMENT_THEORY = SGP/SGP4

EPOCH          = 2026-01-14T12:08:20.709600
MEAN_MOTION    = 14.42306889
ECCENTRICITY   = .00154737
INCLINATION    = 74.0674
RA_OF_ASC_NODE = 191.3343
ARG_OF_PERICENTER = 13.2380
MEAN_ANOMALY   = 346.9180

EPHEMERIS_TYPE = 0
CLASSIFICATION_TYPE = U
NORAD_CAT_ID   = 11574
ELEMENT_SET_NO = 999
REV_AT_EPOCH   = 42829
BSTAR          = .87832145E-4
MEAN_MOTION_DOT = .264E-5
MEAN_MOTION_DDOT = 0

CCSDS_OMM_VERS = 2.0
CREATION_DATE  = 
ORIGINATOR     = 

OBJECT_NAME    = SL-14 R/B
OBJECT_ID      = 1980-005B
CENTER_NAME    = EARTH
REF_FRAME      = TEME
TIME_SYSTEM    = UTC
MEAN_ELEMENT_THEORY = SGP/SGP4

EPOCH          = 2026-01-14T10:20:40.129728
MEAN_MOTION    = 14.90839984
ECCENTRICITY   = .00154615
INCLINATION    = 82.5148
RA_OF_ASC_NODE = 358.6898
ARG_OF_PERICENTER = 350.5820
MEAN_ANOMALY   = 9.5106

EPHEMERIS_TYPE = 0
CLASSIFICATION_TYPE = U
NORAD_CAT_ID   = 11672
ELEMENT_SET_NO = 999
REV_AT_EPOCH   = 46840
BSTAR          = .4808476E-4
MEAN_MOTION_DOT = .499E-5
MEAN_MOTION_DDOT = 0

CCSDS_OMM_VERS = 2.0
CREATION_DATE  = 
ORIGINATOR     = 

OBJECT_NAME    = SL-8 R/B
OBJECT_ID      = 1981-003B
CENTER_NAME    = EARTH
REF_FRAME      = TEME
TIME_SYSTEM    = UTC
MEAN_ELEMENT_THEORY = SGP/SGP4

EPOCH          = 2026-01-14T09:23:34.400832
MEAN_MOTION    = 15.08460421
ECCENTRICITY   = .02719269
INCLINATION    = 82.9383
RA_OF_ASC_NODE = 340.1493
ARG_OF_PERICENTER = 8.2129
MEAN_ANOMALY   = 352.3413

EPHEMERIS_TYPE = 0
CLASSIFICATION_TYPE = U
NORAD_CAT_ID   = 12139
ELEMENT_SET_NO = 999
REV_AT_EPOCH   = 30648
BSTAR          = .47793119E-3
MEAN_MOTION_DOT = .18076E-3
MEAN_MOTION_DDOT = 0

CCSDS_OMM_VERS = 2.0
CREATION_DATE  = 
ORIGINATOR     = 

OBJECT_NAME    = SL-3 R/B
OBJECT_ID      = 1981-046B
CENTER_NAME    = EARTH
REF_FRAME      = TEME
TIME_SYSTEM    = UTC
MEAN_ELEMENT_THEORY = SGP/SGP4

EPOCH          = 2026-01-14T13:44:01.720896
MEAN_MOTION    = 15.40408340
ECCENTRICITY   = .00185781
INCLINATION    = 81.2326
RA_OF_ASC_NODE = 354.6342
ARG_OF_PERICENTER = 202.4229
MEAN_ANOMALY   = 157.6203

EPHEMERIS_TYPE = 0
CLASSIFICATION_TYPE = U
NORAD_CAT_ID   = 12465
ELEMENT_SET_NO = 999
REV_AT_EPOCH   = 43009
BSTAR          = .16088323E-3
MEAN_MOTION_DOT = .6573E-4
MEAN_MOTION_DDOT = 0

CCSDS_OMM_VERS = 2.0
CREATION_DATE  = 
ORIGINATOR     = 

OBJECT_NAME    = SL-3 R/B
OBJECT_ID      = 1981-103B
CENTER_NAME    = EARTH
REF_FRAME      = TEME
TIME_SYSTEM    = UTC
MEAN_ELEMENT_THEORY = SGP/SGP4

EPOCH          = 2026-01-14T13:33:57.351168
MEAN_MOTION    = 15.20673915
ECCENTRICITY   = .00143098
INCLINATION    = 81.1594
RA_OF_ASC_NODE = 276.9010
ARG_OF_PERICENTER = 104.7906
MEAN_ANOMALY   = 255.4912

EPHEMERIS_TYPE = 0
CLASSIFICATION_TYPE = U
NORAD_CAT_ID   = 12904
ELEMENT_SET_NO = 999
REV_AT_EPOCH   = 96500
BSTAR          = .10835567E-3
MEAN_MOTION_DOT = .2411E-4
MEAN_MOTION_DDOT = 0

CCSDS_OMM_VERS = 2.0
CREATION_DATE  = 
ORIGINATOR     = 

OBJECT_NAME    = SL-3 R/B
OBJECT_ID      = 1982-013B
CENTER_NAME    = EARTH
REF_FRAME      = TEME
TIME_SYSTEM    = UTC
MEAN_ELEMENT_THEORY = SGP/SGP4

EPOCH          = 2026-01-14T12:45:17.105472
MEAN_MOTION    = 15.21400630
ECCENTRICITY   = .00229584
INCLINATION    = 81.1726
RA_OF_ASC_NODE = 224.2173
ARG_OF_PERICENTER = 4.8507
MEAN_ANOMALY   = 355.2942

EPHEMERIS_TYPE = 0
CLASSIFICATION_TYPE = U
NORAD_CAT_ID   = 13068
ELEMENT_SET_NO = 999
REV_AT_EPOCH   = 39611
BSTAR          = .12024555E-3
MEAN_MOTION_DOT = .2742E-4
MEAN_MOTION_DDOT = 0

CCSDS_OMM_VERS = 2.0
CREATION_DATE  = 
ORIGINATOR     = 

OBJECT_NAME    = SL-3 R/B
OBJECT_ID      = 1982-039B
CENTER_NAME    = EARTH
REF_FRAME      = TEME
TIME_SYSTEM    = UTC
MEAN_ELEMENT_THEORY = SGP/SGP4

EPOCH          = 2026-01-14T13:57:07.728480
MEAN_MOTION    = 15.09745280
ECCENTRICITY   = .00298682
INCLINATION    = 81.1680
RA_OF_ASC_NODE = 278.3052
ARG_OF_PERICENTER = 141.6013
MEAN_ANOMALY   = 218.7346

EPHEMERIS_TYPE = 0
CLASSIFICATION_TYPE = U
NORAD_CAT_ID   = 13154
ELEMENT_SET_NO = 999
REV_AT_EPOCH   = 37347
BSTAR          = .86521972E-4
MEAN_MOTION_DOT = .1434E-4
MEAN_MOTION_DDOT = 0

